{"type": "FeatureCollection", "features": [ {"type": "Feature", "properties": {"norad_id": 39574, "name": "GPM-CORE", "group": "resource", "lat": -52.6668229683168, "lon": 82.18436034538134, "alt_km": 429.7683332051347, "timestamp": "2025-12-09T05:43:20.384764+00:00", "meta": {"OBJECT_NAME": "GPM-CORE", "OBJECT_ID": "2014-009C", "EPOCH": "2025-12-08T19:21:45.227808", "MEAN_MOTION": 15.45421032, "ECCENTRICITY": 0.0010513, "INCLINATION": 64.9738, "RA_OF_ASC_NODE": 225.8571, "ARG_OF_PERICENTER": 269.8241, "MEAN_ANOMALY": 90.1695, "EPHEMERIS_TYPE": 0, "CLASSIFICATION_TYPE": "U", "NORAD_CAT_ID": 39574, "ELEMENT_SET_NO": 999, "REV_AT_EPOCH": 66840, "BSTAR": 0.00042635, "MEAN_MOTION_DOT": 0.00020354, "MEAN_MOTION_DDOT": 0}, "tle": {"line1": "1 39574U 14009C   25342.80677347  .00020354  00000+0  42635-3 0  9996", "line2": "2 39574  64.9738 225.8571 0010513 269.8241  90.1695 15.45421032668400"}}, "geometry": {"type": "Point", "coordinates": [82.18436034538134, -52.6668229683168]}}, {"type": "Feature", "properties": {"norad_id": 39634, "name": "SENTINEL-1A", "group": "resource", "lat": 75.43051238222341, "lon": -157.86739642410348, "alt_km": 687.7436200518023, "timestamp": "2025-12-09T05:43:20.384774+00:00", "meta": {"OBJECT_NAME": "SENTINEL-1A", "OBJECT_ID": "2014-016A", "EPOCH": "2025-12-08T21:01:40.029600", "MEAN_MOTION": 14.59199836, "ECCENTRICITY": 0.0001264, "INCLINATION": 98.1799, "RA_OF_ASC_NODE": 348.1741, "ARG_OF_PERICENTER": 84.4499, "MEAN_ANOMALY": 275.6844, "EPHEMERIS_TYPE": 0, "CLASSIFICATION_TYPE": "U", "NORAD_CAT_ID": 39634, "ELEMENT_SET_NO": 999, "REV_AT_EPOCH": 62226, "BSTAR": 5.157e-05, "MEAN_MOTION_DOT": 1.97e-06, "MEAN_MOTION_DDOT": 0}, "tle": {"line1": "1 39634U 14016A   25342.87615775  .00000197  00000+0  51570-4 0  9997", "line2": "2 39634  98.1799 348.1741 0001264  84.4499 275.6844 14.59199836622268"}}, "geometry": {"type": "Point", "coordinates": [-157.86739642410348, 75.43051238222341]}}, {"type": "Feature", "properties": {"norad_id": 39731, "name": "KAZEOSAT 1", "group": "resource", "lat": -66.34406808639093, "lon": 74.79858355259115, "alt_km": 759.6579928025885, "timestamp": "2025-12-09T05:43:20.384785+00:00", "meta": {"OBJECT_NAME": "KAZEOSAT 1", "OBJECT_ID": "2014-024A", "EPOCH": "2025-12-08T20:02:40.992288", "MEAN_MOTION": 14.4205859, "ECCENTRICITY": 0.0001087, "INCLINATION": 98.3438, "RA_OF_ASC_NODE": 54.8301, "ARG_OF_PERICENTER": 93.621, "MEAN_ANOMALY": 266.5104, "EPHEMERIS_TYPE": 0, "CLASSIFICATION_TYPE": "U", "NORAD_CAT_ID": 39731, "ELEMENT_SET_NO": 999, "REV_AT_EPOCH": 61112, "BSTAR": 8.904e-05, "MEAN_MOTION_DOT": 2.5e-06, "MEAN_MOTION_DDOT": 0}, "tle": {"line1": "1 39731U 14024A   25342.83519667  .00000250  00000+0  89040-4 0  9996", "line2": "2 39731  98.3438  54.8301 0001087  93.6210 266.5104 14.42058590611121"}}, "geometry": {"type": "Point", "coordinates": [74.79858355259115, -66.34406808639093]}}, {"type": "Feature", "properties": {"norad_id": 39766, "name": "ALOS-2", "group": "resource", "lat": 64.4625640108442, "lon": 61.18761813404751, "alt_km": 623.9001200923858, "timestamp": "2025-12-09T05:43:20.384795+00:00", "meta": {"OBJECT_NAME": "ALOS-2", "OBJECT_ID": "2014-029A", "EPOCH": "2025-12-08T19:41:15.006912", "MEAN_MOTION": 14.79457487, "ECCENTRICITY": 0.0001453, "INCLINATION": 97.923, "RA_OF_ASC_NODE": 77.7223, "ARG_OF_PERICENTER": 101.1392, "MEAN_ANOMALY": 258.9983, "EPHEMERIS_TYPE": 0, "CLASSIFICATION_TYPE": "U", "NORAD_CAT_ID": 39766, "ELEMENT_SET_NO": 999, "REV_AT_EPOCH": 62343, "BSTAR": 0.0004627, "MEAN_MOTION_DOT": 3.404e-05, "MEAN_MOTION_DDOT": 0}, "tle": {"line1": "1 39766U 14029A   25342.82031258  .00003404  00000+0  46270-3 0  9994", "line2": "2 39766  97.9230  77.7223 0001453 101.1392 258.9983 14.79457487623439"}}, "geometry": {"type": "Point", "coordinates": [61.18761813404751, 64.4625640108442]}}, {"type": "Feature", "properties": {"norad_id": 40010, "name": "KAZEOSAT 2", "group": "resource", "lat": -80.53937230371298, "lon": -45.0105556192473, "alt_km": 616.7218722980479, "timestamp": "2025-12-09T05:43:20.384806+00:00", "meta": {"OBJECT_NAME": "KAZEOSAT 2", "OBJECT_ID": "2014-033A", "EPOCH": "2025-12-08T20:27:03.318336", "MEAN_MOTION": 14.85157532, "ECCENTRICITY": 0.0007449, "INCLINATION": 97.5501, "RA_OF_ASC_NODE": 187.367, "ARG_OF_PERICENTER": 221.2257, "MEAN_ANOMALY": 138.8397, "EPHEMERIS_TYPE": 0, "CLASSIFICATION_TYPE": "U", "NORAD_CAT_ID": 40010, "ELEMENT_SET_NO": 999, "REV_AT_EPOCH": 62070, "BSTAR": 0.00015899, "MEAN_MOTION_DOT": 1.311e-05, "MEAN_MOTION_DDOT": 0}, "tle": {"line1": "1 40010U 14033A   25342.85212174  .00001311  00000+0  15899-3 0  9992", "line2": "2 40010  97.5501 187.3670 0007449 221.2257 138.8397 14.85157532620706"}}, "geometry": {"type": "Point", "coordinates": [-45.0105556192473, -80.53937230371298]}}, {"type": "Feature", "properties": {"norad_id": 40011, "name": "HODOYOSHI-4", "group": "resource", "lat": -36.540977630632625, "lon": 177.9292435769381, "alt_km": 617.8479890078961, "timestamp": "2025-12-09T05:43:20.384817+00:00", "meta": {"OBJECT_NAME": "HODOYOSHI-4", "OBJECT_ID": "2014-033B", "EPOCH": "2025-12-08T20:12:05.328576", "MEAN_MOTION": 14.87460161, "ECCENTRICITY": 0.0022836, "INCLINATION": 97.5415, "RA_OF_ASC_NODE": 171.9181, "ARG_OF_PERICENTER": 213.8419, "MEAN_ANOMALY": 146.1342, "EPHEMERIS_TYPE": 0, "CLASSIFICATION_TYPE": "U", "NORAD_CAT_ID": 40011, "ELEMENT_SET_NO": 999, "REV_AT_EPOCH": 62050, "BSTAR": 0.00023272, "MEAN_MOTION_DOT": 2.065e-05, "MEAN_MOTION_DDOT": 0}, "tle": {"line1": "1 40011U 14033B   25342.84172834  .00002065  00000+0  23272-3 0  9991", "line2": "2 40011  97.5415 171.9181 0022836 213.8419 146.1342 14.87460161620508"}}, "geometry": {"type": "Point", "coordinates": [177.9292435769381, -36.540977630632625]}}, {"type": "Feature", "properties": {"norad_id": 40013, "name": "DEIMOS-2", "group": "resource", "lat": 50.36472906685103, "lon": -150.1302792844797, "alt_km": 583.5712834198503, "timestamp": "2025-12-09T05:43:20.384827+00:00", "meta": {"OBJECT_NAME": "DEIMOS-2", "OBJECT_ID": "2014-033D", "EPOCH": "2025-12-08T21:27:07.247232", "MEAN_MOTION": 14.92950464, "ECCENTRICITY": 0.0001083, "INCLINATION": 97.6067, "RA_OF_ASC_NODE": 218.8212, "ARG_OF_PERICENTER": 92.4256, "MEAN_ANOMALY": 267.7087, "EPHEMERIS_TYPE": 0, "CLASSIFICATION_TYPE": "U", "NORAD_CAT_ID": 40013, "ELEMENT_SET_NO": 999, "REV_AT_EPOCH": 60932, "BSTAR": 0.00039451, "MEAN_MOTION_DOT": 4.042e-05, "MEAN_MOTION_DDOT": 0}, "tle": {"line1": "1 40013U 14033D   25342.89383388  .00004042  00000+0  39451-3 0  9999", "line2": "2 40013  97.6067 218.8212 0001083  92.4256 267.7087 14.92950464609320"}}, "geometry": {"type": "Point", "coordinates": [-150.1302792844797, 50.36472906685103]}}, {"type": "Feature", "properties": {"norad_id": 40015, "name": "HODOYOSHI-3", "group": "resource", "lat": -75.7526572662093, "lon": -178.95609109007523, "alt_km": 600.9573711200846, "timestamp": "2025-12-09T05:43:20.384838+00:00", "meta": {"OBJECT_NAME": "HODOYOSHI-3", "OBJECT_ID": "2014-033F", "EPOCH": "2025-12-08T17:07:57.903168", "MEAN_MOTION": 14.84786721, "ECCENTRICITY": 0.003181, "INCLINATION": 97.6199, "RA_OF_ASC_NODE": 148.7241, "ARG_OF_PERICENTER": 261.7408, "MEAN_ANOMALY": 98.0199, "EPHEMERIS_TYPE": 0, "CLASSIFICATION_TYPE": "U", "NORAD_CAT_ID": 40015, "ELEMENT_SET_NO": 999, "REV_AT_EPOCH": 61935, "BSTAR": 0.00036831, "MEAN_MOTION_DOT": 3.101e-05, "MEAN_MOTION_DDOT": 0}, "tle": {"line1": "1 40015U 14033F   25342.71386462  .00003101  00000+0  36831-3 0  9992", "line2": "2 40015  97.6199 148.7241 0031810 261.7408  98.0199 14.84786721619359"}}, "geometry": {"type": "Point", "coordinates": [-178.95609109007523, -75.7526572662093]}}, {"type": "Feature", "properties": {"norad_id": 40053, "name": "SPOT 7", "group": "resource", "lat": -51.86378534898707, "lon": 55.83334013660584, "alt_km": 698.6094906142916, "timestamp": "2025-12-09T05:43:20.384870+00:00", "meta": {"OBJECT_NAME": "SPOT 7", "OBJECT_ID": "2014-034A", "EPOCH": "2025-12-08T20:05:55.648032", "MEAN_MOTION": 14.60726135, "ECCENTRICITY": 0.0001534, "INCLINATION": 98.0908, "RA_OF_ASC_NODE": 45.0029, "ARG_OF_PERICENTER": 88.6191, "MEAN_ANOMALY": 271.5185, "EPHEMERIS_TYPE": 0, "CLASSIFICATION_TYPE": "U", "NORAD_CAT_ID": 40053, "ELEMENT_SET_NO": 999, "REV_AT_EPOCH": 60934, "BSTAR": 0.00019195, "MEAN_MOTION_DOT": 8.9e-06, "MEAN_MOTION_DDOT": 0}, "tle": {"line1": "1 40053U 14034A   25342.83744963  .00000890  00000+0  19195-3 0  9998", "line2": "2 40053  98.0908  45.0029 0001534  88.6191 271.5185 14.60726135609340"}}, "geometry": {"type": "Point", "coordinates": [55.83334013660584, -51.86378534898707]}}, {"type": "Feature", "properties": {"norad_id": 40072, "name": "SKYSAT-B", "group": "resource", "lat": -81.35400481030709, "lon": 31.48258443941201, "alt_km": 614.8913238993791, "timestamp": "2025-12-09T05:43:20.384882+00:00", "meta": {"OBJECT_NAME": "SKYSAT-B", "OBJECT_ID": "2014-037D", "EPOCH": "2025-12-08T18:50:03.590592", "MEAN_MOTION": 14.87305642, "ECCENTRICITY": 0.0005828, "INCLINATION": 98.3606, "RA_OF_ASC_NODE": 286.2818, "ARG_OF_PERICENTER": 162.0529, "MEAN_ANOMALY": 198.0892, "EPHEMERIS_TYPE": 0, "CLASSIFICATION_TYPE": "U", "NORAD_CAT_ID": 40072, "ELEMENT_SET_NO": 999, "REV_AT_EPOCH": 61765, "BSTAR": 0.00040028, "MEAN_MOTION_DOT": 3.552e-05, "MEAN_MOTION_DDOT": 0}, "tle": {"line1": "1 40072U 14037D   25342.78476378  .00003552  00000+0  40028-3 0  9995", "line2": "2 40072  98.3606 286.2818 0005828 162.0529 198.0892 14.87305642617652"}}, "geometry": {"type": "Point", "coordinates": [31.48258443941201, -81.35400481030709]}}]}